---
layout:     post
title:      "Day 23 - Lesson Cancelled"
subtitle:   "30 kt crosswinds cancel another lesson"
date:       2015-11-15
author:     "Owain Abraham-Williams"
---

    TAF EGGD 151058Z 1512/1612 25023G33KT 9999 BKN010
             TEMPO 1512/1521 7000 BKN008
             PROB30 TEMPO 1512/1519 BKN004
             BECMG 1516/1519 22018G28KT FEW010 BKN016
             BECMG 1522/1601 8000 -RA
             TEMPO 1523/1603 RA BKN014
             BECMG 1603/1606 28015G25KT 9999 NSW=

    METAR EGGD 151050Z AUTO 25016G27KT 9999 OVC011 13/11 Q1014=

#### TOTAL FLYING HOURS = 14.3