---
layout:     post
title:      "Day 26 - Lesson 14"
subtitle:   "Circuits"
date:       2015-11-22
author:     "Owain Abraham-Williams"
---

    TAF EGGD 220502Z 2206/2306 VRB03KT 9999 FEW045
             PROB30 TEMPO 2206/2208 7000 RA SHRA BKN010
             PROB30 TEMPO 2208/2212 BKN010
             BECMG 2209/2212 03010KT
             BECMG 2300/2303 VRB03KT
             PROB30 TEMPO 2300/2306 3000 BR BKN004=

    METAR EGGD 221050Z AUTO 31005KT 9999 BKN023 05/03 Q1015=

 * A clear day and a booked lesson finally align!
 * Back to circuits
 * First few are only okay
 * Subsequent landings are much better
 * Derek says I am ready for my solo
 * Just need to do three good landing in my next lesson
 * Dubai may mean it's a while before I fly again though :-(

#### TOTAL FLYING HOURS = 15.5