---
layout:     post
title:      "Day 24 - Lesson Cancelled"
subtitle:   "Another gusty day cancels yet another lesson"
date:       2015-11-21
author:     "Owain Abraham-Williams"
---

    TAF EGGD 211102Z 2112/2212 32012KT 9999 SCT025
             TEMPO 2112/2115 33015G25KT
             PROB30 TEMPO 2203/2208 BKN012=

    METAR EGGD 211350Z AUTO 33017G27KT 9999 NCD 04/M05 Q1014=

#### TOTAL FLYING HOURS = 14.3