---
layout:     post
title:      "Day 28 - Lesson Cancelled"
subtitle:   "Heavy rain cancels the first lesson of the New Year"
date:       2016-01-09
author:     "Owain Abraham-Williams"
---

With Nafis

    TAF EGGD 091100Z 0912/1012 18012KT 9999 SCT020
             TEMPO 0912/0924 19017G27KT 7000 SHRA BKN010
             PROB30 TEMPO 0912/0924 3000 +SHRA BKN006 BKN020CB
             BECMG 1000/1003 25012KT
             TEMPO 1000/1012 7000 SHRA BKN010
             PROB30 TEMPO 1002/1009 26015G27KT BKN006=

    METAR EGGD 091350Z AUTO 20014KT 1900 +RA BKN007/// OVC016///
               //////CB 08/06 Q0984=

#### TOTAL FLYING HOURS = 15.5