---
layout:     post
title:      "Day 61 - Cancelled"
subtitle:   "More low cloud cancel another lesson"
date:       2016-06-22
author:     "Owain Abraham-Williams"
---

 * The weather's more like April, not June!
 * Derek says it's not looking good now, but it's set to improve, so he'll call later
 * He calls later, but it hasn't improved, so my lesson is cancelled, not postponed
 * Another wasted day, and an annual leave day this time :-(

    METAR EGGD 221050Z AUTO 17006KT 140V200 9999 OVC004 16/15
               Q1018=

    METAR EGGD 220850Z AUTO 14006KT 110V170 9999 OVC003 15/15
               Q1018=

    TAF EGGD 220500Z 2206/2306 17006KT 9999 BKN006
             TEMPO 2206/2211 3000 RADZ BKN003
             PROB30 TEMPO 2206/2210 0800 FG BKN001
             BECMG 2210/2213 BKN015
             TEMPO 2213/2223 7000 RA SHRA BKN010
             PROB30 TEMPO 2213/2223 4000 BR BKN008
             PROB30 TEMPO 2223/2306 BKN010=

    TAF EGGD 221104Z 2212/2312 20006KT 8000 BKN004
             BECMG 2212/2214 9999 SCT012
             TEMPO 2214/2221 8000 -RA BKN012
             PROB40 TEMPO 2214/2220 4000 RA SHRA BKN006
             PROB30 TEMPO 2221/2307 8000 BKN010=

#### TOTAL FLYING HOURS = 40.3

#### SOLO FLYING HOURS = 7.3