---
layout:     post
title:      "Day 63 - Cancelled"
subtitle:   "Another bad weather day writes off today's lesson"
date:       2016-06-26
author:     "Owain Abraham-Williams"
---

 * Derek called to this morning to say the weather wasn't looking good and was forecast to get worse. So ha cancels my lesson

    METAR EGGD 261350Z AUTO 26010KT 9999 BKN007 OVC043 14/12
               Q1019=

    TAF EGGD 261100Z 2612/2712 27009KT 9999 BKN012
             PROB40 TEMPO 2612/2615 6000 -RADZ BKN006
             BECMG 2615/2618 BKN006
             TEMPO 2616/2702 3000 RADZ BR BKN004
             PROB30 TEMPO 2618/2701 0900 FG BKN001
             BECMG 2701/2704 FEW008
             PROB40 TEMPO 2703/2706 BKN006=

#### TOTAL FLYING HOURS = 41.4

#### SOLO FLYING HOURS = 7.3