---
layout:     post
title:      "Day 59 - Cancelled"
subtitle:   "Low cloud and bad weather cancel another attempt at my Qualifying Cross Country"
date:       2016-06-12
author:     "Owain Abraham-Williams"
---

    METAR EGGD 121150Z 26011KT 9999 SCT007 BKN017 16/15 Q1007=

    TAF EGGD 121100Z 1212/1312 25014KT 9999 SCT020
             PROB30 TEMPO 1212/1224 BKN006
             BECMG 1300/1303 8000 BKN008
             TEMPO 1303/1312 3000 RADZ BKN003
             PROB30 TEMPO 1303/1308 1200 BR BKN001=

#### TOTAL FLYING HOURS = 39.2

#### SOLO FLYING HOURS = 7.3