---
layout:     post
title:      "Day 35 - Lesson Cancelled"
subtitle:   "Bad weather cancels the first in a double lesson this weekend"
date:       2016-02-20
author:     "Owain Abraham-Williams"
---

    TAF AMD EGGD 200638Z 2006/2106 27014KT 9999 BKN002
             TEMPO 2006/2106 0300 RADZ FG BKN001
             TEMPO 2006/2012 28017G27KT
             BECMG 2007/2010 21014KT
             BECMG 2010/2013 27024KT
             TEMPO 2012/2106 28028G38KT=

    METAR EGGD 200850Z AUTO 26018KT 9999 OVC004 08/07 Q1011=

#### TOTAL FLYING HOURS = 18.7

#### SOLO FLYING HOURS = 0.4