---
layout:     post
title:      "Day 67 - Cancelled"
subtitle:   "Low visibility and low cloud cancel another lesson"
date:       2016-07-09
author:     "Owain Abraham-Williams"
---

 * Derek calls to say the weather's not good enough for flying today so my lesson is cancelled.

    METAR EGGD 091220Z AUTO 19014KT 9999 OVC009 20/17 Q1016=

    TAF AMD EGGD 091223Z 0912/1012 21012KT 9999 BKN008
             TEMPO 0912/0921 8000 -DZ SCT008 BKN020
             PROB30 TEMPO 0912/0921 23016G26KT 4000 DZ
             BECMG 0921/0924 SCT003 BKN005
             TEMPO 0921/1005 3000 RA -RADZ BKN003
             PROB30 TEMPO 0922/1001 23015G25KT
             BECMG 1004/1006 SCT016
             PROB30 TEMPO 1006/1009 BKN008=

#### TOTAL FLYING HOURS = 44.3

#### SOLO FLYING HOURS = 10.2