---
layout:     post
title:      "Day 64 - Cancelled"
subtitle:   "Strong gusting winds, low visibility, low cloud and rain cancel yet another summer lesson"
date:       2016-06-29
author:     "Owain Abraham-Williams"
---

 * The weather this morning was rubbish
 * It was a rainy, windy, dreary day.
 * Both the tennis at Wimbledon and my lesson were cancelled today!

    METAR EGGD 291050Z AUTO 20013KT 9999 -RA OVC004/// //////TCU
               13/12 Q1006=

    TAF AMD EGGD 290957Z 2909/3006 22015KT 9999 SCT006
             TEMPO 2909/2920 23017G27KT 7000 RA BKN004
             PROB40 TEMPO 2909/2920 4000 RADZ
             TEMPO 2920/3006 BKN009
             PROB30 TEMPO 2920/3001 5000 -SHRA BR BKN004=

#### TOTAL FLYING HOURS = 41.4

#### SOLO FLYING HOURS = 7.3