---
layout:     post
title:      "Day 58 - Cancelled"
subtitle:   "Thunderstorms and bad weather cancel my Qualifying Cross Country"
date:       2016-06-11
author:     "Owain Abraham-Williams"
---

    METAR EGGD 111250Z AUTO 19004KT 140V250 9999 SCT014 OVC024
               18/14 Q1011=

    TAF EGGD 111102Z 1112/1212 22005KT 9999 SCT020
             TEMPO 1112/1119 6000 SHRA BKN010
             PROB40 TEMPO 1112/1119 4000 +SHRA BKN008
             PROB30 TEMPO 1119/1201 8000 SHRA BKN012
             BECMG 1201/1204 8000 BKN012
             BECMG 1203/1206 16010KT
             TEMPO 1204/1212 4000 RA BKN006
             PROB30 TEMPO 1204/1209 1200 RADZ BR BKN001
             BECMG 1209/1212 25012KT=

#### TOTAL FLYING HOURS = 39.2

#### SOLO FLYING HOURS = 7.3