---
layout:     post
title:      "Day 55 - Cancelled"
subtitle:   "Low visibility and heavy cloud cancel my lesson"
date:       2016-06-04
author:     "Owain Abraham-Williams"
---

 * Had been hoping to do my Qualify Cross Country.
 * But low visibility and heavy cloud put a stop to that.
 * My lesson was cancelled. Hopefully tomorrow will be better.

    METAR EGGD 041050Z AUTO 01005KT 7000 OVC009 16/13 Q1018=

    TAF EGGD 041059Z 0412/0512 05003KT 6000 BKN006
             BECMG 0412/0415 9999 SCT020
             PROB30 0500/0509 6000 BKN008=

#### TOTAL FLYING HOURS = 37.7

#### SOLO FLYING HOURS = 7.3