---
layout:     post
title:      "Day 52 - Cancelled"
subtitle:   "Thunderstorms cancel my solo flight to Swansea"
date:       2016-05-22
author:     "Owain Abraham-Williams"
---

    METAR EGGD 221520Z 26014KT 9999 VCSH FEW020TCU FEW022 14/09
               Q1009=

    TAF EGGD 221104Z 2212/2312 27009KT 9999 SCT020
             TEMPO 2212/2218 7000 SHRA
             PROB30 TEMPO 2212/2215 4000 TSRA BKN010=

#### TOTAL FLYING HOURS = 35.7

#### SOLO FLYING HOURS = 5.3