---
layout:     post
title:      "Day 41 - Cancelled"
subtitle:   "What looks like perfect flying weather turns out to be hazy and unflyable"
date:       2016-01-24
author:     "Owain Abraham-Williams"
---

    TAF EGGD 131059Z 1312/1412 07011KT 4000 BR SCT015
             BECMG 1312/1315 9999 NSW
             TEMPO 1312/1321 8000
             PROB40 TEMPO 1321/1410 4500 BR BKN006
             TEMPO 1410/1412 8000=

    METAR EGGD 131450Z AUTO 07012KT 9000 NCD 09/01 Q1033=

#### TOTAL FLYING HOURS = 22.5

#### SOLO FLYING HOURS = 0.4