---
layout:     post
title:      "Day 36 - Lesson Cancelled"
subtitle:   "Bad weather cancels the second in a double lesson this weekend"
date:       2016-02-21
author:     "Owain Abraham-Williams"
---

    TAF AMD EGGD 210841Z 2108/2206 24022KT 9999 BKN018
             TEMPO 2108/2206 25025G38KT
             TEMPO 2108/2206 3000 RADZ BKN004
             PROB30 TEMPO 2108/2110 0300 RADZ FG BKN001
             PROB30 TEMPO 2116/2206 0300 +RA FG BKN001
             BECMG 2203/2206 34008KT=

    METAR EGGD 210820Z AUTO 24015KT 9999 OVC007 10/09 Q1012=

#### TOTAL FLYING HOURS = 18.7

#### SOLO FLYING HOURS = 0.4