---
layout:     post
title:      "Day 34 - Lesson Cancelled"
subtitle:   "More bad weather cancels yet another lesson"
date:       2016-02-13
author:     "Owain Abraham-Williams"
---

Beautiful weather forecast for tomorrow, but I don't have a lesson booked then!

    TAF EGGD 130500Z 1306/1406 07012KT 6000 -RA BKN006
             PROB30 TEMPO 1306/1311 06015G25KT 4000 RA BKN004
             BECMG 1310/1313 9999 NSW SCT010 BKN025
             PROB40 TEMPO 1313/1402 7000 -RA BKN010
             PROB30 TEMPO 1402/1406 4000 RASN BKN006=

    METAR EGGD 130850Z AUTO 07018KT 6000 -RA OVC005 02/01 Q0982=

#### TOTAL FLYING HOURS = 18.7

#### SOLO FLYING HOURS = 0.4