---
layout:     post
title:      "Day 53 - Cancelled"
subtitle:   "More bad weather again cancels my solo flight to Swansea"
date:       2016-05-28
author:     "Owain Abraham-Williams"
---

    METAR EGGD 281250Z 07009KT 9000 FEW024 SCT030 18/13 Q1014=

    TAF EGGD 281059Z 2812/2912 09009KT 9999 FEW014 SCT025
             TEMPO 2812/2901 6000 SHRA
             PROB40 TEMPO 2812/2822 3000 +SHRA TSGS BKN014 BKN025CB
              BECMG 2902/2905 03012KT=

#### TOTAL FLYING HOURS = 35.7

#### SOLO FLYING HOURS = 5.3