---
layout:     post
title:      "Day 46 - Lesson 26"
subtitle:   "Practice forced landings"
date:       2016-04-24
author:     "Owain Abraham-Williams"
---

 * Today we're practising forced landings without power
 * Derek demonstrates one
 * Then I have a go, but it's all too tight
 * On my next attempt I turn with the wind behind me
 * Third attempt is a bit better, but I'm still too high

    TAF EGGD 240502Z 2406/2506 32008KT 9999 SCT040
             PROB30 TEMPO 2502/2506 7000 -RA BKN009
             BECMG 2503/2506 26010KT=

    METAR EGGD 240750Z AUTO 34012KT 9999 BKN024 07/01 Q1021=

#### TOTAL FLYING HOURS = 29.3

#### SOLO FLYING HOURS = 2.8