---
layout:     post
title:      "Day 31 - Lesson Cancelled"
subtitle:   "Fog cancels another lesson"
date:       2016-01-24
author:     "Owain Abraham-Williams"
---

    TAF AMD EGGD 240844Z 2408/2506 18012KT 9999 SCT004 BKN025
             TEMPO 2408/2415 6000 BKN004
             PROB30 TEMPO 2408/2412 0300 FG BKN001
             PROB30 TEMPO 2415/2418 BKN008=

    METAR EGGD 241050Z AUTO 21011KT 9999 SCT006 BKN034 12/11
               Q1026=

 * Low cloud cancels today's lesson

#### TOTAL FLYING HOURS = 17.4